CCSDS_OMM_VERS = 2.0
CREATION_DATE  = 
ORIGINATOR     = 

OBJECT_NAME    = STARLINK-36430
OBJECT_ID      = 2026-002X
CENTER_NAME    = EARTH
REF_FRAME      = TEME
TIME_SYSTEM    = UTC
MEAN_ELEMENT_THEORY = SGP/SGP4

EPOCH          = 2026-01-17T22:00:03.000096
MEAN_MOTION    = 15.79240758
ECCENTRICITY   = .000153
INCLINATION    = 42.9970
RA_OF_ASC_NODE = 257.7807
ARG_OF_PERICENTER = 268.5370
MEAN_ANOMALY   = 241.8951

EPHEMERIS_TYPE = 0
CLASSIFICATION_TYPE = U
NORAD_CAT_ID   = 67326
ELEMENT_SET_NO = 999
REV_AT_EPOCH   = 341
BSTAR          = -.10045765E-1
MEAN_MOTION_DOT = -.1621511E-1
MEAN_MOTION_DDOT = 0

CCSDS_OMM_VERS = 2.0
CREATION_DATE  = 
ORIGINATOR     = 

OBJECT_NAME    = STARLINK-36501
OBJECT_ID      = 2026-002Y
CENTER_NAME    = EARTH
REF_FRAME      = TEME
TIME_SYSTEM    = UTC
MEAN_ELEMENT_THEORY = SGP/SGP4

EPOCH          = 2026-01-17T22:00:03.000096
MEAN_MOTION    = 15.79335387
ECCENTRICITY   = .00012522
INCLINATION    = 42.9973
RA_OF_ASC_NODE = 257.7873
ARG_OF_PERICENTER = 277.8672
MEAN_ANOMALY   = 230.1322

EPHEMERIS_TYPE = 0
CLASSIFICATION_TYPE = U
NORAD_CAT_ID   = 67327
ELEMENT_SET_NO = 999
REV_AT_EPOCH   = 325
BSTAR          = -.99398119E-2
MEAN_MOTION_DOT = -.161253E-1
MEAN_MOTION_DDOT = 0

CCSDS_OMM_VERS = 2.0
CREATION_DATE  = 
ORIGINATOR     = 

OBJECT_NAME    = STARLINK-36489
OBJECT_ID      = 2026-002Z
CENTER_NAME    = EARTH
REF_FRAME      = TEME
TIME_SYSTEM    = UTC
MEAN_ELEMENT_THEORY = SGP/SGP4

EPOCH          = 2026-01-17T22:00:03.000096
MEAN_MOTION    = 15.79138137
ECCENTRICITY   = .00015463
INCLINATION    = 42.9968
RA_OF_ASC_NODE = 257.7742
ARG_OF_PERICENTER = 275.4399
MEAN_ANOMALY   = 237.5090

EPHEMERIS_TYPE = 0
CLASSIFICATION_TYPE = U
NORAD_CAT_ID   = 67328
ELEMENT_SET_NO = 999
REV_AT_EPOCH   = 341
BSTAR          = -.10333615E-1
MEAN_MOTION_DOT = -.1688791E-1
MEAN_MOTION_DDOT = 0

CCSDS_OMM_VERS = 2.0
CREATION_DATE  = 
ORIGINATOR     = 

OBJECT_NAME    = STARLINK-36496
OBJECT_ID      = 2026-002AA
CENTER_NAME    = EARTH
REF_FRAME      = TEME
TIME_SYSTEM    = UTC
MEAN_ELEMENT_THEORY = SGP/SGP4

EPOCH          = 2026-01-17T22:00:03.000096
MEAN_MOTION    = 15.79013966
ECCENTRICITY   = .00013195
INCLINATION    = 42.9970
RA_OF_ASC_NODE = 257.7624
ARG_OF_PERICENTER = 268.4201
MEAN_ANOMALY   = 249.1136

EPHEMERIS_TYPE = 0
CLASSIFICATION_TYPE = U
NORAD_CAT_ID   = 67329
ELEMENT_SET_NO = 999
REV_AT_EPOCH   = 323
BSTAR          = -.10891541E-1
MEAN_MOTION_DOT = -.1759964E-1
MEAN_MOTION_DDOT = 0

CCSDS_OMM_VERS = 2.0
CREATION_DATE  = 
ORIGINATOR     = 

OBJECT_NAME    = STARLINK-36483
OBJECT_ID      = 2026-002AB
CENTER_NAME    = EARTH
REF_FRAME      = TEME
TIME_SYSTEM    = UTC
MEAN_ELEMENT_THEORY = SGP/SGP4

EPOCH          = 2026-01-17T22:00:03.000096
MEAN_MOTION    = 15.78746443
ECCENTRICITY   = .00012872
INCLINATION    = 42.9971
RA_OF_ASC_NODE = 257.7492
ARG_OF_PERICENTER = 280.0193
MEAN_ANOMALY   = 242.4955

EPHEMERIS_TYPE = 0
CLASSIFICATION_TYPE = U
NORAD_CAT_ID   = 67330
ELEMENT_SET_NO = 999
REV_AT_EPOCH   = 341
BSTAR          = -.11434915E-1
MEAN_MOTION_DOT = -.1817067E-1
MEAN_MOTION_DDOT = 0

CCSDS_OMM_VERS = 2.0
CREATION_DATE  = 
ORIGINATOR     = 

OBJECT_NAME    = STARLINK-36494
OBJECT_ID      = 2026-002AC
CENTER_NAME    = EARTH
REF_FRAME      = TEME
TIME_SYSTEM    = UTC
MEAN_ELEMENT_THEORY = SGP/SGP4

EPOCH          = 2026-01-17T22:00:03.000096
MEAN_MOTION    = 15.79059521
ECCENTRICITY   = .00014549
INCLINATION    = 42.9969
RA_OF_ASC_NODE = 257.7679
ARG_OF_PERICENTER = 267.5409
MEAN_ANOMALY   = 247.7657

EPHEMERIS_TYPE = 0
CLASSIFICATION_TYPE = U
NORAD_CAT_ID   = 67331
ELEMENT_SET_NO = 999
REV_AT_EPOCH   = 341
BSTAR          = -.10575673E-1
MEAN_MOTION_DOT = -.1718164E-1
MEAN_MOTION_DDOT = 0

CCSDS_OMM_VERS = 2.0
CREATION_DATE  = 
ORIGINATOR     = 

OBJECT_NAME    = STARLINK-36492
OBJECT_ID      = 2026-002AD
CENTER_NAME    = EARTH
REF_FRAME      = TEME
TIME_SYSTEM    = UTC
MEAN_ELEMENT_THEORY = SGP/SGP4

EPOCH          = 2026-01-17T22:00:03.000096
MEAN_MOTION    = 15.78781353
ECCENTRICITY   = .00014509
INCLINATION    = 42.9972
RA_OF_ASC_NODE = 257.7546
ARG_OF_PERICENTER = 270.4432
MEAN_ANOMALY   = 249.9992

EPHEMERIS_TYPE = 0
CLASSIFICATION_TYPE = U
NORAD_CAT_ID   = 67332
ELEMENT_SET_NO = 999
REV_AT_EPOCH   = 341
BSTAR          = -.11340426E-1
MEAN_MOTION_DOT = -.1806585E-1
MEAN_MOTION_DDOT = 0

CCSDS_OMM_VERS = 2.0
CREATION_DATE  = 
ORIGINATOR     = 

OBJECT_NAME    = STARLINK-36427
OBJECT_ID      = 2026-002AE
CENTER_NAME    = EARTH
REF_FRAME      = TEME
TIME_SYSTEM    = UTC
MEAN_ELEMENT_THEORY = SGP/SGP4

EPOCH          = 2026-01-17T22:00:03.000096
MEAN_MOTION    = 15.86983336
ECCENTRICITY   = .0001695
INCLINATION    = 42.9952
RA_OF_ASC_NODE = 257.2556
ARG_OF_PERICENTER = 274.0601
MEAN_ANOMALY   = 83.4908

EPHEMERIS_TYPE = 0
CLASSIFICATION_TYPE = U
NORAD_CAT_ID   = 67333
ELEMENT_SET_NO = 999
REV_AT_EPOCH   = 331
BSTAR          = -.77571102E-2
MEAN_MOTION_DOT = -.1787696E-1
MEAN_MOTION_DDOT = 0

CCSDS_OMM_VERS = 2.0
CREATION_DATE  = 
ORIGINATOR     = 

OBJECT_NAME    = STARLINK-35343
OBJECT_ID      = 2026-003A
CENTER_NAME    = EARTH
REF_FRAME      = TEME
TIME_SYSTEM    = UTC
MEAN_ELEMENT_THEORY = SGP/SGP4

EPOCH          = 2026-01-17T22:00:03.000096
MEAN_MOTION    = 15.91930084
ECCENTRICITY   = .00017134
INCLINATION    = 42.9980
RA_OF_ASC_NODE = 161.4695
ARG_OF_PERICENTER = 278.4584
MEAN_ANOMALY   = 2.4934

EPHEMERIS_TYPE = 0
CLASSIFICATION_TYPE = U
NORAD_CAT_ID   = 67334
ELEMENT_SET_NO = 999
REV_AT_EPOCH   = 245
BSTAR          = -.43236789E-2
MEAN_MOTION_DOT = -.1477451E-1
MEAN_MOTION_DDOT = .61673926E-3

CCSDS_OMM_VERS = 2.0
CREATION_DATE  = 
ORIGINATOR     = 

OBJECT_NAME    = STARLINK-36486
OBJECT_ID      = 2026-003B
CENTER_NAME    = EARTH
REF_FRAME      = TEME
TIME_SYSTEM    = UTC
MEAN_ELEMENT_THEORY = SGP/SGP4

EPOCH          = 2026-01-17T22:00:03.000096
MEAN_MOTION    = 15.91972482
ECCENTRICITY   = .0001663
INCLINATION    = 42.9981
RA_OF_ASC_NODE = 161.4658
ARG_OF_PERICENTER = 272.6912
MEAN_ANOMALY   = 9.8145

EPHEMERIS_TYPE = 0
CLASSIFICATION_TYPE = U
NORAD_CAT_ID   = 67335
ELEMENT_SET_NO = 999
REV_AT_EPOCH   = 251
BSTAR          = -.43205282E-2
MEAN_MOTION_DOT = -.1479596E-1
MEAN_MOTION_DDOT = .61863798E-3

CCSDS_OMM_VERS = 2.0
CREATION_DATE  = 
ORIGINATOR     = 

OBJECT_NAME    = STARLINK-36480
OBJECT_ID      = 2026-003C
CENTER_NAME    = EARTH
REF_FRAME      = TEME
TIME_SYSTEM    = UTC
MEAN_ELEMENT_THEORY = SGP/SGP4

EPOCH          = 2026-01-17T22:00:03.000096
MEAN_MOTION    = 15.92021735
ECCENTRICITY   = .00016976
INCLINATION    = 42.9982
RA_OF_ASC_NODE = 161.4605
ARG_OF_PERICENTER = 273.4047
MEAN_ANOMALY   = 11.1968

EPHEMERIS_TYPE = 0
CLASSIFICATION_TYPE = U
NORAD_CAT_ID   = 67336
ELEMENT_SET_NO = 999
REV_AT_EPOCH   = 251
BSTAR          = -.43353661E-2
MEAN_MOTION_DOT = -.148839E-1
MEAN_MOTION_DDOT = .62570038E-3

CCSDS_OMM_VERS = 2.0
CREATION_DATE  = 
ORIGINATOR     = 

OBJECT_NAME    = STARLINK-36410
OBJECT_ID      = 2026-003D
CENTER_NAME    = EARTH
REF_FRAME      = TEME
TIME_SYSTEM    = UTC
MEAN_ELEMENT_THEORY = SGP/SGP4

EPOCH          = 2026-01-17T22:00:03.000096
MEAN_MOTION    = 15.92065288
ECCENTRICITY   = .00017591
INCLINATION    = 42.9982
RA_OF_ASC_NODE = 161.4549
ARG_OF_PERICENTER = 276.8379
MEAN_ANOMALY   = 9.8659

EPHEMERIS_TYPE = 0
CLASSIFICATION_TYPE = U
NORAD_CAT_ID   = 67337
ELEMENT_SET_NO = 999
REV_AT_EPOCH   = 251
BSTAR          = -.43323845E-2
MEAN_MOTION_DOT = -.149073E-1
MEAN_MOTION_DDOT = .62777083E-3

