STARLINK-36430          
1 67326U 26002X   26017.91670139 -.01621511  00000+0 -10046-1 0  9996
2 67326  42.9970 257.7807 0001530 268.5370 241.8951 15.79240758  3419
STARLINK-36501          
1 67327U 26002Y   26017.91670139 -.01612530  00000+0 -99398-2 0  9996
2 67327  42.9973 257.7873 0001252 277.8672 230.1322 15.79335387  3253
STARLINK-36489          
1 67328U 26002Z   26017.91670139 -.01688791  00000+0 -10334-1 0  9991
2 67328  42.9968 257.7742 0001546 275.4399 237.5090 15.79138137  3414
STARLINK-36496          
1 67329U 26002AA  26017.91670139 -.01759964  00000+0 -10892-1 0  9992
2 67329  42.9970 257.7624 0001319 268.4201 249.1136 15.79013966  3231
STARLINK-36483          
1 67330U 26002AB  26017.91670139 -.01817067  00000+0 -11435-1 0  9997
2 67330  42.9971 257.7492 0001287 280.0193 242.4955 15.78746443  3418
STARLINK-36494          
1 67331U 26002AC  26017.91670139 -.01718164  00000+0 -10576-1 0  9991
2 67331  42.9969 257.7679 0001454 267.5409 247.7657 15.79059521  3411
STARLINK-36492          
1 67332U 26002AD  26017.91670139 -.01806585  00000+0 -11340-1 0  9997
2 67332  42.9972 257.7546 0001450 270.4432 249.9992 15.78781353  3414
STARLINK-36427          
1 67333U 26002AE  26017.91670139 -.01787696  00000+0 -77571-2 0  9998
2 67333  42.9952 257.2556 0001695 274.0601  83.4908 15.86983336  3319
STARLINK-35343          
1 67334U 26003A   26017.91670139 -.01477451  61674-3 -43237-2 0  9995
2 67334  42.9980 161.4695 0001713 278.4584   2.4934 15.91930084  2452
STARLINK-36486          
1 67335U 26003B   26017.91670139 -.01479596  61864-3 -43205-2 0  9994
2 67335  42.9981 161.4658 0001663 272.6912   9.8145 15.91972482  2518
STARLINK-36480          
1 67336U 26003C   26017.91670139 -.01488390  62570-3 -43354-2 0  9997
2 67336  42.9982 161.4605 0001697 273.4047  11.1968 15.92021735  2513
STARLINK-36410          
1 67337U 26003D   26017.91670139 -.01490730  62777-3 -43324-2 0  9995
2 67337  42.9982 161.4549 0001759 276.8379   9.8659 15.92065288  2517
